KUIPER-00152            
1 65772U 25217L   26027.83335647  .00009628  00000+0  12555-2 0  9994
2 65772  51.8985 211.2696 0001346  44.9320 269.8578 14.81081541  5685
KUIPER-00153            
1 65773U 25217M   26026.91482251  .00011734  00000+0  68316-3 0  9995
2 65773  51.8761 222.0732 0012590 180.0604 180.0372 15.12368837 18770
KUIPER-00155            
1 65774U 25217N   26027.51353888  .00023604  00000+0  10284-2 0  9995
2 65774  51.8807 206.1852 0005929 200.2935 159.7810 15.22068693 19047
KUIPER-00156            
1 65775U 25217P   26027.83335647 -.01023107  00000+0 -11757+0 0  9998
2 65775  51.9058 206.5854 0006104 312.1270  13.1092 14.88525137  4056
KUIPER-00158            
1 65776U 25217Q   26027.82464904  .00007211  00000+0  97158-3 0  9995
2 65776  51.8954 226.2881 0000799 132.3731 227.7299 14.80033698 18794
KUIPER-00163            
1 65777U 25217R   26027.82222149  .00004468  00000+0  61437-3 0  9991
2 65777  51.8960 228.8065 0001226 111.2708 248.8385 14.79958860 18751
KUIPER-00165            
1 65778U 25217S   26027.53182831  .00003294  00000+0  46077-3 0  9992
2 65778  51.8993 217.5999 0002553  84.2432 275.8822 14.79949673 18888
KUIPER-00166            
1 65779U 25217T   26027.83335647 -.01168526  00000+0 -10900+0 0  9996
2 65779  51.8904 204.5859 0002228 226.8613  25.2601 14.96683577  5667
